{"type": "FeatureCollection", "features": [ {"type": "Feature", "properties": {"norad_id": 30409, "name": "FENGYUN 1C DEB", "group": "fengyun-1c-debris", "lat": -81.01643979076049, "lon": 38.00592143578972, "alt_km": 933.6503224863145, "timestamp": "2025-12-05T14:45:15.575248+00:00", "meta": {"OBJECT_NAME": "FENGYUN 1C DEB", "OBJECT_ID": "1999-025ADY", "EPOCH": "2025-12-03T22:23:11.208768", "MEAN_MOTION": 14.03689869, "ECCENTRICITY": 0.01683482, "INCLINATION": 98.4721, "RA_OF_ASC_NODE": 325.9112, "ARG_OF_PERICENTER": 30.3843, "MEAN_ANOMALY": 29.525, "EPHEMERIS_TYPE": 0, "CLASSIFICATION_TYPE": "U", "NORAD_CAT_ID": 30409, "ELEMENT_SET_NO": 999, "REV_AT_EPOCH": 96306, "BSTAR": 0.0013322152, "MEAN_MOTION_DOT": 2.336e-05, "MEAN_MOTION_DDOT": 0}, "tle": {"line1": "1 30409U 99025ADY 25337.93276862  .00002336  00000+0  13322-2 0  9990", "line2": "2 30409  98.4721 325.9112 0168348  30.3843  29.5250 14.03689869963064"}}, "geometry": {"type": "Point", "coordinates": [38.00592143578972, -81.01643979076049]}}, {"type": "Feature", "properties": {"norad_id": 30411, "name": "FENGYUN 1C DEB", "group": "fengyun-1c-debris", "lat": 38.473124573938826, "lon": -116.31223454401372, "alt_km": 860.4207443548275, "timestamp": "2025-12-05T14:45:15.575258+00:00", "meta": {"OBJECT_NAME": "FENGYUN 1C DEB", "OBJECT_ID": "1999-025AEA", "EPOCH": "2025-12-04T16:23:24.916128", "MEAN_MOTION": 14.07582939, "ECCENTRICITY": 0.0121925, "INCLINATION": 98.5815, "RA_OF_ASC_NODE": 249.6941, "ARG_OF_PERICENTER": 129.6433, "MEAN_ANOMALY": 231.5571, "EPHEMERIS_TYPE": 0, "CLASSIFICATION_TYPE": "U", "NORAD_CAT_ID": 30411, "ELEMENT_SET_NO": 999, "REV_AT_EPOCH": 95870, "BSTAR": 0.0033427, "MEAN_MOTION_DOT": 6e-05, "MEAN_MOTION_DDOT": 0}, "tle": {"line1": "1 30411U 99025AEA 25338.68292727  .00006000  00000+0  33427-2 0  9994", "line2": "2 30411  98.5815 249.6941 0121925 129.6433 231.5571 14.07582939958701"}}, "geometry": {"type": "Point", "coordinates": [-116.31223454401372, 38.473124573938826]}}, {"type": "Feature", "properties": {"norad_id": 30413, "name": "FENGYUN 1C DEB", "group": "fengyun-1c-debris", "lat": 25.226608458064007, "lon": 35.53160658180996, "alt_km": 777.7901037277161, "timestamp": "2025-12-05T14:45:15.575268+00:00", "meta": {"OBJECT_NAME": "FENGYUN 1C DEB", "OBJECT_ID": "1999-025AEC", "EPOCH": "2025-12-04T14:49:55.930080", "MEAN_MOTION": 14.32390588, "ECCENTRICITY": 0.0046194, "INCLINATION": 102.0624, "RA_OF_ASC_NODE": 208.3681, "ARG_OF_PERICENTER": 238.3512, "MEAN_ANOMALY": 178.8944, "EPHEMERIS_TYPE": 0, "CLASSIFICATION_TYPE": "U", "NORAD_CAT_ID": 30413, "ELEMENT_SET_NO": 999, "REV_AT_EPOCH": 97023, "BSTAR": 0.0053912, "MEAN_MOTION_DOT": 0.00014716, "MEAN_MOTION_DDOT": 0}, "tle": {"line1": "1 30413U 99025AEC 25338.61800845  .00014716  00000+0  53912-2 0  9999", "line2": "2 30413 102.0624 208.3681 0046194 238.3512 178.8944 14.32390588970239"}}, "geometry": {"type": "Point", "coordinates": [35.53160658180996, 25.226608458064007]}}, {"type": "Feature", "properties": {"norad_id": 30414, "name": "FENGYUN 1C DEB", "group": "fengyun-1c-debris", "lat": -23.452041819419463, "lon": -47.4699058605653, "alt_km": 741.846768596617, "timestamp": "2025-12-05T14:45:15.575279+00:00", "meta": {"OBJECT_NAME": "FENGYUN 1C DEB", "OBJECT_ID": "1999-025AED", "EPOCH": "2025-12-04T09:20:14.293248", "MEAN_MOTION": 14.33961587, "ECCENTRICITY": 0.0058852, "INCLINATION": 99.0804, "RA_OF_ASC_NODE": 135.2222, "ARG_OF_PERICENTER": 212.556, "MEAN_ANOMALY": 147.1988, "EPHEMERIS_TYPE": 0, "CLASSIFICATION_TYPE": "U", "NORAD_CAT_ID": 30414, "ELEMENT_SET_NO": 999, "REV_AT_EPOCH": 96967, "BSTAR": 0.0066873, "MEAN_MOTION_DOT": 0.00019025, "MEAN_MOTION_DDOT": 0}, "tle": {"line1": "1 30414U 99025AED 25338.38905432  .00019025  00000+0  66873-2 0  9990", "line2": "2 30414  99.0804 135.2222 0058852 212.5560 147.1988 14.33961587969672"}}, "geometry": {"type": "Point", "coordinates": [-47.4699058605653, -23.452041819419463]}}, {"type": "Feature", "properties": {"norad_id": 30415, "name": "FENGYUN 1C DEB", "group": "fengyun-1c-debris", "lat": 25.579766956342443, "lon": -135.47721481377718, "alt_km": 1121.418707928372, "timestamp": "2025-12-05T14:45:15.575289+00:00", "meta": {"OBJECT_NAME": "FENGYUN 1C DEB", "OBJECT_ID": "1999-025AEE", "EPOCH": "2025-12-03T02:29:12.911424", "MEAN_MOTION": 13.68896976, "ECCENTRICITY": 0.02374476, "INCLINATION": 99.646, "RA_OF_ASC_NODE": 37.34, "ARG_OF_PERICENTER": 294.0738, "MEAN_ANOMALY": 93.2871, "EPHEMERIS_TYPE": 0, "CLASSIFICATION_TYPE": "U", "NORAD_CAT_ID": 30415, "ELEMENT_SET_NO": 999, "REV_AT_EPOCH": 93746, "BSTAR": 0.0014054844, "MEAN_MOTION_DOT": 1.429e-05, "MEAN_MOTION_DDOT": 0}, "tle": {"line1": "1 30415U 99025AEE 25337.10362166  .00001429  00000+0  14055-2 0  9995", "line2": "2 30415  99.6460  37.3400 0237447 294.0738  93.2871 13.68896976937468"}}, "geometry": {"type": "Point", "coordinates": [-135.47721481377718, 25.579766956342443]}}, {"type": "Feature", "properties": {"norad_id": 30416, "name": "FENGYUN 1C DEB", "group": "fengyun-1c-debris", "lat": 50.35327935457683, "lon": -164.94292532543196, "alt_km": 873.5023578493256, "timestamp": "2025-12-05T14:45:15.575299+00:00", "meta": {"OBJECT_NAME": "FENGYUN 1C DEB", "OBJECT_ID": "1999-025AEF", "EPOCH": "2025-12-04T14:10:10.725888", "MEAN_MOTION": 14.02618338, "ECCENTRICITY": 0.0055007, "INCLINATION": 98.8352, "RA_OF_ASC_NODE": 3.2451, "ARG_OF_PERICENTER": 212.4466, "MEAN_ANOMALY": 147.3315, "EPHEMERIS_TYPE": 0, "CLASSIFICATION_TYPE": "U", "NORAD_CAT_ID": 30416, "ELEMENT_SET_NO": 999, "REV_AT_EPOCH": 96510, "BSTAR": 0.00039409, "MEAN_MOTION_DOT": 5.73e-06, "MEAN_MOTION_DDOT": 0}, "tle": {"line1": "1 30416U 99025AEF 25338.59040192  .00000573  00000+0  39409-3 0  9992", "line2": "2 30416  98.8352   3.2451 0055007 212.4466 147.3315 14.02618338965109"}}, "geometry": {"type": "Point", "coordinates": [-164.94292532543196, 50.35327935457683]}}, {"type": "Feature", "properties": {"norad_id": 30417, "name": "FENGYUN 1C DEB", "group": "fengyun-1c-debris", "lat": 37.207770188029116, "lon": -36.88429145758769, "alt_km": 850.3783740470681, "timestamp": "2025-12-05T14:45:15.575321+00:00", "meta": {"OBJECT_NAME": "FENGYUN 1C DEB", "OBJECT_ID": "1999-025AEG", "EPOCH": "2025-12-04T06:24:12.727008", "MEAN_MOTION": 14.14649646, "ECCENTRICITY": 0.0064152, "INCLINATION": 98.6927, "RA_OF_ASC_NODE": 328.4737, "ARG_OF_PERICENTER": 143.9818, "MEAN_ANOMALY": 233.6295, "EPHEMERIS_TYPE": 0, "CLASSIFICATION_TYPE": "U", "NORAD_CAT_ID": 30417, "ELEMENT_SET_NO": 999, "REV_AT_EPOCH": 97269, "BSTAR": 0.00045045, "MEAN_MOTION_DOT": 8.41e-06, "MEAN_MOTION_DDOT": 0}, "tle": {"line1": "1 30417U 99025AEG 25338.26681397  .00000841  00000+0  45045-3 0  9996", "line2": "2 30417  98.6927 328.4737 0064152 143.9818 233.6295 14.14649646972692"}}, "geometry": {"type": "Point", "coordinates": [-36.88429145758769, 37.207770188029116]}}, {"type": "Feature", "properties": {"norad_id": 30418, "name": "FENGYUN 1C DEB", "group": "fengyun-1c-debris", "lat": -19.385283294494972, "lon": -44.5083094917431, "alt_km": 583.6681182220746, "timestamp": "2025-12-05T14:45:15.575333+00:00", "meta": {"OBJECT_NAME": "FENGYUN 1C DEB", "OBJECT_ID": "1999-025AEH", "EPOCH": "2025-12-04T04:39:27.882144", "MEAN_MOTION": 14.83959262, "ECCENTRICITY": 0.01114678, "INCLINATION": 98.8399, "RA_OF_ASC_NODE": 137.0581, "ARG_OF_PERICENTER": 142.7714, "MEAN_ANOMALY": 30.3115, "EPHEMERIS_TYPE": 0, "CLASSIFICATION_TYPE": "U", "NORAD_CAT_ID": 30418, "ELEMENT_SET_NO": 999, "REV_AT_EPOCH": 465, "BSTAR": 0.0020769631, "MEAN_MOTION_DOT": 0.00019265, "MEAN_MOTION_DDOT": 0}, "tle": {"line1": "1 30418U 99025AEH 25338.19407271  .00019265  00000+0  20770-2 0  9993", "line2": "2 30418  98.8399 137.0581 0111467 142.7714  30.3115 14.83959262  4652"}}, "geometry": {"type": "Point", "coordinates": [-44.5083094917431, -19.385283294494972]}}, {"type": "Feature", "properties": {"norad_id": 30419, "name": "FENGYUN 1C DEB", "group": "fengyun-1c-debris", "lat": -14.891889019034224, "lon": 103.63506450656736, "alt_km": 869.9572938650217, "timestamp": "2025-12-05T14:45:15.575344+00:00", "meta": {"OBJECT_NAME": "FENGYUN 1C DEB", "OBJECT_ID": "1999-025AEJ", "EPOCH": "2025-12-04T14:56:43.136736", "MEAN_MOTION": 14.17997953, "ECCENTRICITY": 0.0053063, "INCLINATION": 99.2394, "RA_OF_ASC_NODE": 285.0842, "ARG_OF_PERICENTER": 47.3465, "MEAN_ANOMALY": 125.9503, "EPHEMERIS_TYPE": 0, "CLASSIFICATION_TYPE": "U", "NORAD_CAT_ID": 30419, "ELEMENT_SET_NO": 999, "REV_AT_EPOCH": 97233, "BSTAR": 0.0016255, "MEAN_MOTION_DOT": 3.329e-05, "MEAN_MOTION_DDOT": 0}, "tle": {"line1": "1 30419U 99025AEJ 25338.62272149  .00003329  00000+0  16255-2 0  9993", "line2": "2 30419  99.2394 285.0842 0053063  47.3465 125.9503 14.17997953972334"}}, "geometry": {"type": "Point", "coordinates": [103.63506450656736, -14.891889019034224]}}, {"type": "Feature", "properties": {"norad_id": 30432, "name": "FENGYUN 1C DEB", "group": "fengyun-1c-debris", "lat": -32.5304959991992, "lon": -116.05449917451139, "alt_km": 712.2662639706041, "timestamp": "2025-12-05T14:45:15.575354+00:00", "meta": {"OBJECT_NAME": "FENGYUN 1C DEB", "OBJECT_ID": "1999-025AET", "EPOCH": "2025-12-04T15:34:05.857824", "MEAN_MOTION": 14.40618983, "ECCENTRICITY": 0.0083545, "INCLINATION": 98.8359, "RA_OF_ASC_NODE": 237.2542, "ARG_OF_PERICENTER": 2.852, "MEAN_ANOMALY": 357.3127, "EPHEMERIS_TYPE": 0, "CLASSIFICATION_TYPE": "U", "NORAD_CAT_ID": 30432, "ELEMENT_SET_NO": 999, "REV_AT_EPOCH": 98618, "BSTAR": 0.001631, "MEAN_MOTION_DOT": 5.376e-05, "MEAN_MOTION_DDOT": 0}, "tle": {"line1": "1 30432U 99025AET 25338.64867891  .00005376  00000+0  16310-2 0  9990", "line2": "2 30432  98.8359 237.2542 0083545   2.8520 357.3127 14.40618983986187"}}, "geometry": {"type": "Point", "coordinates": [-116.05449917451139, -32.5304959991992]}}]}